[{"OBJECT_NAME":"POLYITAN-1","OBJECT_ID":"2014-033AJ","EPOCH":"2026-03-09T22:27:50.258304","MEAN_MOTION":15.29568085,"ECCENTRICITY":0.00093607,"INCLINATION":98.1053,"RA_OF_ASC_NODE":86.0432,"ARG_OF_PERICENTER":127.248,"MEAN_ANOMALY":232.9614,"EPHEMERIS_TYPE":0,"CLASSIFICATION_TYPE":"U","NORAD_CAT_ID":40042,"ELEMENT_SET_NO":999,"REV_AT_EPOCH":63840,"BSTAR":0.00083772474,"MEAN_MOTION_DOT":0.00024003,"MEAN_MOTION_DDOT":0},{"OBJECT_NAME":"STARLINK-36087","OBJECT_ID":"2025-281G","EPOCH":"2026-03-09T03:15:47.016576","MEAN_MOTION":15.27574962,"ECCENTRICITY":0.00016866,"INCLINATION":43.0031,"RA_OF_ASC_NODE":346.3599,"ARG_OF_PERICENTER":266.0097,"MEAN_ANOMALY":94.0562,"EPHEMERIS_TYPE":0,"CLASSIFICATION_TYPE":"U","NORAD_CAT_ID":66854,"ELEMENT_SET_NO":999,"REV_AT_EPOCH":1610,"BSTAR":0.0012655263,"MEAN_MOTION_DOT":0.00034721,"MEAN_MOTION_DDOT":0}]
